{
  "norad_id": 63760,
  "name": "STARLINK-11701 [DTC]",
  "history": [
    {
      "epoch": "2026-03-28T15:56:07.274976",
      "apogee_km": 357.4609282621368,
      "perigee_km": 355.55300362658454,
      "latitude_deg": -29.106286123540354,
      "longitude_deg": -100.25858335988596,
      "semi_major_axis_km": 6734.64396594436,
      "eccentricity": 0.00014165,
      "inclination_deg": 43.0024,
      "raan_deg": 177.5151,
      "arg_perigee_deg": 250.1316,
      "mean_anomaly_deg": 109.94,
      "mean_motion_rev_day": 15.70835835
    }
  ]
}